{"fetched_at":"2026-03-29T16:36:15Z","count":15609,"tles":[{"name":"STARLINK-34150","line1":"1 63998U 25101E   26087.78860609  .00029598  00000+0  10796-2 0  9998","line2":"2 63998  43.0010 250.3279 0001897 266.9172  93.1463 15.27615657 49971","category":"Starlink"}]}